{
  "id": "overture:places:place:counterexample-1",
  "type": "Feature",
  "geometry": {
    "type": "Point",
    "coordinates": [4.4025, 51.2194]
  },
  "properties": {
    "theme": "places",
    "type": "place",
    "version": 1,
    "names": {
      "primary": "Example Diner"
    },
    "categories": {
      "primary": "casual_eatery"
    },
    "operating_hours": {
      "primary": [
        {
          "days": ["Monday"],
          "status": "Open",
          "open": "9:00",
          "close": "22:00"
        }
      ]
    }
  }
}
