{
  "id": "overture:places:place:example-1",
  "type": "Feature",
  "geometry": {
    "type": "Point",
    "coordinates": [4.4025, 51.2194]
  },
  "properties": {
    "theme": "places",
    "type": "place",
    "version": 1,
    "names": {
      "primary": "Example Diner"
    },
    "categories": {
      "primary": "casual_eatery"
    },
    "operating_hours": {
      "primary": [
        {
          "days": ["Monday", "Tuesday", "Wednesday", "Thursday", "Friday"],
          "status": "Open",
          "open": "11:30",
          "close": "22:00"
        },
        {
          "days": ["Saturday"],
          "status": "Open",
          "is_open_24_hours": true
        },
        {
          "days": ["Sunday"],
          "status": "Closed"
        }
      ]
    }
  }
}
